#aV2020  3 25  0  0  0.00000000     288 DD+AD WGS84 FIT  NGA
## 2098 259200.00000000   300.00000000 58933 0.0000000000000
+   32     1  2  3  4  5  6  7  8  9 10 11 12 13 14 15 16 17
+         18 19 20 21 22 23 24 25 26 27 28 29 30 31 32  0  0
+          0  0  0  0  0  0  0  0  0  0  0  0  0  0  0  0  0
+          0  0  0  0  0  0  0  0  0  0  0  0  0  0  0  0  0
+          0  0  0  0  0  0  0  0  0  0  0  0  0  0  0  0  0
++         2  2  2  2  2  2  2  2  2  2  2  2  2  2  2  2  2
++         2  2  2  2  2  2  2  2  2  2  2  2  2  2  2  0  0
++         0  0  0  0  0  0  0  0  0  0  0  0  0  0  0  0  0
++         0  0  0  0  0  0  0  0  0  0  0  0  0  0  0  0  0
++         0  0  0  0  0  0  0  0  0  0  0  0  0  0  0  0  0
%c cc cc ccc ccc cccc cccc cccc cccc ccccc ccccc ccccc ccccc
%c cc cc ccc ccc cccc cccc cccc cccc ccccc ccccc ccccc ccccc
%f  0.0000000  0.000000000  0.00000000000  0.000000000000000
%f  0.0000000  0.000000000  0.00000000000  0.000000000000000
%i    0    0    0    0      0      0      0      0         0
%i    0    0    0    0      0      0      0      0         0
/*      NGA, ST. LOUIS,MO.                                  
/*   EPHEMERIS COMPUTED FROM 2 DAYS OF DATA                 
/*   EPOCHA v5 SMOOTHER                                     
/*   G1762 IERS2010 SATAF SATAPC                            
*  2020  3 25 22  5  0.00000000
P  1  13814.422477  -7013.161385  21310.971534   -337.863238                    
V  1   2825.752661  27427.965794   7447.886340     -0.125610                    
P  2 -13328.609225 -16757.263314 -15119.496572   -428.242404                    
V  2   -909.824955 -20433.008902  22440.393566     -0.066024                    
P  3  23009.578311 -12457.423785   4181.965749   -127.570347                    
V  3  -2869.694792   5321.066886  31318.804191     -0.102275                    
P  4  19983.887132  -3305.353250 -17186.091809    -67.271798                    
V  4  18667.518896  11448.760810  19466.396764     -0.052156                    
P  5 -17507.989720  -4455.933759 -19665.147439     -9.728008                    
V  5  19091.282034 -15644.148932 -13349.482724     -0.006366                    
P  6  -7130.295568 -24438.566791  -7442.979545   -238.972002                    
V  6   1334.838621  -9667.531273  30283.637820     -0.082436                    
P  7   6316.726116 -22829.843576 -11213.417918   -243.931429                    
V  7   4118.696812  14612.818462 -27213.016508     -0.085658                    
P  8  24902.389310   5129.232750   8141.841358    -28.393989                    
V  8   8440.855968   6158.205467 -29529.720293     -0.013432                    
P  9  10458.028884 -11925.483593 -21359.630813   -184.249388                    
V  9  24416.360077  11588.242999   5479.902101     -0.080121                    
P 10  -3435.971025  18360.734088  18875.008986   -289.243719                    
V 10 -20390.922127  12476.789176 -16147.439883     -0.123996                    
P 11  18426.732557   3029.008200  18291.883537   -323.699483                    
V 11  10808.410332  22135.291659 -14477.966853      0.107873                    
P 12 -23885.824334   9610.565207   5919.377291    136.633613                    
V 12   5536.013738  -6026.350102  31067.205323     -0.042716                    
P 13 -23063.048854 -13116.144945   1877.704708     -2.998947                    
V 13   -786.306354  -3467.585855 -31749.093239      0.029338                    
P 14  15730.305006  18326.170727  11600.313763    -23.921078                    
V 14 -13356.248482  -5143.020170  26846.025187      0.025186                    
P 15 -25293.835680  -2463.649485   8046.171102   -242.473844                    
V 15  -8894.769341  -6606.489737 -28495.429623      0.026175                    
P 16  17590.157075   5128.286650 -19605.629575   -139.135977                    
V 16 -20667.100381  12683.187603 -14953.152975     -0.043043                    
P 17  -6795.339884 -17909.539553  18842.521762    238.115353                    
V 17  20670.361636  10079.544072  17383.103291      0.063246                    
P 18 -10028.782052  18691.737905 -15983.662107    132.224961                    
V 18  -3090.034372 -20136.953203 -21635.142244      0.145174                    
P 19 -14261.962600 -18356.446267  12555.620314   -180.870764                    
V 19  14980.590978   6880.470227  26451.947259      0.051346                    
P 20 -12424.668108  21159.659997   9811.084002    527.854056                    
V 20 -11717.462244   5990.711166 -27741.051613     -0.000061                    
P 21  -3459.894985  24206.347935  -9895.104212    -22.892493                    
V 21  -4757.768995 -13079.778662 -27852.563247      0.051170                    
P 22  22551.117589  -6549.913499  12507.776624   -785.384250                    
V 22 -10081.114137  12378.842304  25230.406570      0.001898                    
P 23  19926.555330  -4501.679377 -16803.528911   -127.104829                    
V 23  19287.363351  10653.542312  19219.057593      0.027316                    
P 24 -14921.173215   5253.600606  21109.930075    -10.818593                    
V 24  -4523.828200 -27021.275148   3855.522878     -0.005073                    
P 25 -19598.154518  17224.888612  -4336.319141     -7.100284                    
V 25  -5915.069971    684.790333  31413.852178      0.021130                    
P 26   8967.136437  12675.695569 -21578.067935    174.750533                    
V 26 -22047.802484  16231.122088    592.968610      0.074865                    
P 27  23403.448098  12745.724810  -2400.412818   -248.727052                    
V 27  -3410.964451    552.917501 -31731.946080     -0.106621                    
P 28   3489.255174 -17613.110771  20205.592841    730.258775                    
V 28  21516.315710 -11291.680461 -13831.420924     -0.028650                    
P 29 -12850.622408   9087.459190 -21434.442613    -65.357932                    
V 29 -23398.020920 -13590.404122   8263.135949     -0.091673                    
P 30   -705.685326 -26423.965487   -810.230951   -183.694042                    
V 30   3743.258648    892.877706 -31371.005624     -0.086208                    
P 31   8293.744326  22967.330062  -9900.087370    -31.782101                    
V 31  -2204.444285  12821.600069  28451.490115     -0.024734                    
P 32   8579.628569  17815.215703  17875.228334    244.790514                    
V 32 -21096.024970  -7997.271036  18028.807094      0.088769                    
EOF
